SL-14 R/B               
1 19574U 88093B   25116.13210398  .00000822  00000+0  92633-4 0  9994
2 19574  82.5317 340.0337 0021132  13.1133 103.1135 14.85277211974984
SL-16 R/B               
1 19650U 88102B   25116.39437247  .00000090  00000+0  69443-4 0  9992
2 19650  70.9979  99.0831 0012649 141.3460 218.8571 14.16099542882253
INTERCOSMOS 24          
1 20261U 89080A   25116.55062571  .00000571  00000+0  16918-3 0  9992
2 20261  82.6039 310.6395 1189979 308.4510  41.5471 12.58961995626475
SL-14 R/B               
1 20262U 89080C   25116.20716293  .00000389  00000+0  11304-3 0  9993
2 20262  82.5982  17.0355 1231009 190.3177 167.0375 12.50268286620044
DELTA 1 R/B             
1 20323U 89089B   25115.95119859  .00000816  00000+0  21132-3 0  9991
2 20323  97.1105   8.3423 0070609  47.0009 313.7077 14.50348442849674
ARIANE 40 R/B           
1 20443U 90005H   25116.41678466  .00000637  00000+0  21734-3 0  9999
2 20443  98.3489 180.7214 0011409  81.3140 278.9341 14.39598226847418
DELTA 2 R/B(1)          
1 20453U 90008B   25116.16514669  .00031326  00000+0  75006-3 0  9999
2 20453  35.6123  50.3477 0148061 257.2723 101.1419 15.29816252877145
COSMOS 2058             
1 20465U 90010A   25115.72013386  .00005337  00000+0  33992-3 0  9997
2 20465  82.4867 359.7346 0010954 347.1132  12.9815 15.08526432894262
SL-14 R/B               
1 20466U 90010B   25115.70279030  .00000829  00000+0  98411-4 0  9995
2 20466  82.5050 205.9322 0018394 267.4232  92.4877 14.83211953881342
SL-14 R/B               
1 20511U 90018B   25116.22623673  .00000734  00000+0  89765-4 0  9995
2 20511  82.5214 159.7547 0017726  59.4847 300.8114 14.81798018896659
HST                     
1 20580U 90037B   25116.08579939  .00010688  00000+0  41187-3 0  9995
2 20580  28.4689  37.9217 0001989 236.7746 123.2658 15.24661028724987
SL-16 R/B               
1 20625U 90046B   25115.71904193 -.00000173  00000+0 -64677-4 0  9998
2 20625  70.9995 245.6702 0012043  63.2329 297.0024 14.14959986803413
COSMOS 2084             
1 20663U 90055A   25115.87009996  .00005911  00000+0  42617-3 0  9996
2 20663  62.7921 337.5401 0069284 149.2316 211.2873 15.03294077888516
SL-6 R/B(2)             
1 20666U 90055D   25115.80268182  .00005271  00000+0  41233-3 0  9998
2 20666  62.7839 253.2140 0035035 180.8020 179.3028 15.01768431890428
SL-8 R/B                
1 20775U 90078B   25116.22365780  .00024513  00000+0  82731-3 0  9991
2 20775  82.9104 173.8816 0406484 352.0077   7.4777 14.77095168762253
SL-8 R/B                
1 21088U 91006B   25116.20746441  .00000087  00000+0  72333-4 0  9994
2 21088  82.9447  46.2191 0021821 201.2253 267.7587 13.77447008720638
OKEAN-3                 
1 21397U 91039A   25116.55800261  .00005162  00000+0  38680-3 0  9997
2 21397  82.5148 283.4865 0013956 333.9309  26.1212 15.02432512838460
COSMOS 2151             
1 21422U 91042A   25116.20894745  .00003513  00000+0  28993-3 0  9996
2 21422  82.5009  29.4731 0014197  56.6230 303.6349 14.98650832836772
SL-14 R/B               
1 21423U 91042B   25116.21409501  .00000685  00000+0  84267-4 0  9994
2 21423  82.4929 157.8355 0016555 199.3386 160.7201 14.81498550827103
ERS-1                   
1 21574U 91050A   25116.55471042  .00000635  00000+0  21876-3 0  9997
2 21574  98.7934 121.7738 0033243  63.9451 296.5151 14.39156232770091
ARIANE 40 R/B           
1 21610U 91050F   25115.90234738  .00000701  00000+0  22378-3 0  9997
2 21610  98.2435 174.2521 0002311 339.7743  20.3356 14.42590304773174
INTERCOSMOS 25          
1 21819U 91086A   25115.77535859  .00002916  00000+0  56522-3 0  9998
2 21819  82.6010 142.0754 1492888  81.7302 294.9738 12.10793202458190
SL-8 R/B                
1 21876U 92008B   25116.53463699  .00000190  00000+0  17971-3 0  9990
2 21876  82.9253 143.6468 0033399 301.8331 167.8835 13.75920412666036
SL-8 R/B                
1 21938U 92020B   25116.49275137  .00000113  00000+0  10064-3 0  9997
2 21938  82.9341  29.3356 0030442 102.4619  70.7816 13.75497086657823
USA 81                  
1 21949U 92023A   25116.55763652  .00000340  00000+0  11870-3 0  9991
2 21949  85.0050 314.3838 0001632  67.0591 293.0774 14.32224238 49393
COSMOS 2219             
1 22219U 92076A   25115.82752963  .00000375  00000+0  22152-3 0  9995
2 22219  71.0598 322.5087 0018963 321.0613  38.9143 14.14015680673440
SL-16 R/B               
1 22220U 92076B   25115.80053774 -.00000121  00000+0 -36185-4 0  9992
2 22220  70.9976 137.9703 0014498 226.9280 306.2050 14.16796820676800
COSMOS 2221             
1 22236U 92080A   25116.19571632  .00003575  00000+0  32673-3 0  9996
2 22236  82.5065 222.7228 0015134 173.2132 186.9298 14.94677130754394
SL-16 R/B               
1 22285U 92093B   25115.78742258  .00000373  00000+0  21572-3 0  9991
2 22285  71.0214 311.5948 0002340  58.9618 301.1734 14.15389564668176
COSMOS 2228             
1 22286U 92094A   25116.20375127  .00003618  00000+0  32367-3 0  9997
2 22286  82.5203 180.8420 0017008 291.7939  68.1472 14.95506599749653
SL-16 R/B               
1 22566U 93016B   25116.22057275  .00000222  00000+0  13834-3 0  9992
2 22566  71.0069 161.9322 0008035  85.7053 274.4988 14.15258148657261
COSMOS 2242             
1 22626U 93024A   25116.19523206  .00004197  00000+0  38127-3 0  9993
2 22626  82.5222 209.9236 0015274 294.3323  65.6303 14.94963790733252
SL-16 R/B               
1 22803U 93059B   25116.55977603 -.00000135  00000+0 -43064-4 0  9999
2 22803  70.9904 319.8579 0018265 326.9972  33.0010 14.17166603634867
ARIANE 40 R/B           
1 22830U 93061H   25116.22237331  .00000504  00000+0  20124-3 0  9992
2 22830  98.5290 185.6179 0011623 139.3931 220.8122 14.32630712648890
COSMOS 2278             
1 23087U 94023A   25115.96668273  .00000436  00000+0  25285-3 0  9996
2 23087  71.0514 119.7865 0008214 167.5011 192.6316 14.14289481599882
SL-16 R/B               
1 23088U 94023B   25116.16100648 -.00000101  00000+0 -27462-4 0  9998
2 23088  71.0028  17.6962 0001780  14.5111 345.6062 14.14962772601445
SL-16 R/B               
1 23343U 94074B   25116.12786663  .00000942  00000+0  13422-3 0  9992
2 23343  97.7442 154.2252 0006999 163.1119 264.7977 14.78980321640517
SL-16 R/B               
1 23405U 94077B   25116.19578585  .00000308  00000+0  18180-3 0  9995
2 23405  70.9818 300.4052 0004622 277.9877  82.0721 14.15509845571571
ARIANE 40+ R/B          
1 23561U 95021B   25115.93316421  .00000610  00000+0  20970-3 0  9994
2 23561  98.4854 185.9980 0007064  24.4321 149.7694 14.39491229573526
SL-16 R/B               
1 23705U 95058B   25115.76288557  .00000065  00000+0  57621-4 0  9991
2 23705  71.0193 127.7105 0014764 248.4059 111.5491 14.15445569522866
SL-16 R/B               
1 24298U 96051B   25116.45948000 -.00000174  00000+0 -67338-4 0  9995
2 24298  70.7694 126.5785 0018046 246.9946 112.9270 14.12428323477115
ORBVIEW 2 (SEASTAR)     
1 24883U 97037A   25115.82207625  .00000665  00000+0  24887-3 0  9995
2 24883  98.8189 267.4819 0001095 276.2599  83.8461 14.35212478462876
SL-16 R/B               
1 25400U 98043G   25116.44197850  .00000160  00000+0  85819-4 0  9999
2 25400  98.7844  63.4115 0009234 209.5475 150.5184 14.25960239394004
SL-16 R/B               
1 25407U 98045B   25116.49459018  .00000403  00000+0  22803-3 0  9993
2 25407  71.0088 128.5986 0006654 166.0120 194.1189 14.16134182382467
ISS (ZARYA)             
1 25544U 98067A   25116.54581482  .00016635  00000+0  30629-3 0  9995
2 25544  51.6362 202.8258 0002482  75.3938 284.7326 15.49295384507153
CZ-4B R/B               
1 25732U 99025C   25116.18424851  .00000216  00000+0  12527-3 0  9990
2 25732  98.7044 162.1829 0037305 175.8241 227.4603 14.18176666343301
OKEAN-O                 
1 25860U 99039A   25115.62205529  .00001391  00000+0  19216-3 0  9991
2 25860  97.9875 172.9308 0000876  81.6837 278.4474 14.79712128387345
SL-16 R/B               
1 25861U 99039B   25115.71011883  .00001134  00000+0  15241-3 0  9999
2 25861  98.0403 169.4317 0014350 203.2758 156.7806 14.81203555389781
DELTA 2 R/B             
1 25876U 99041E   25115.73292748  .00001375  00000+0  26166-3 0  9996
2 25876  51.7593 129.9023 0507995 130.8848 233.7258 14.10630728318131
HELIOS 1B               
1 25977U 99064A   25116.55957582  .00002663  00000+0  30885-3 0  9992
2 25977  98.2020   4.3170 0002097  58.2768 301.8650 14.86324110369430
TERRA                   
1 25994U 99068A   25116.52883586  .00000936  00000+0  20149-3 0  9997
2 25994  98.0020 176.2384 0003695 100.6598  35.4988 14.60647904348893
SL-16 R/B               
1 26070U 00006B   25115.79209054 -.00000079  00000+0 -15987-4 0  9992
2 26070  71.0033  46.2307 0018432 301.3022  58.6296 14.15766655303561
TITAN 4B R/B            
1 26474U 00047B   25115.54408323  .00005753  00000+0  38647-3 0  9997
2 26474  67.9913 213.0532 0040830  32.6053 327.7603 15.06817505345020
ENVISAT                 
1 27386U 02009A   25116.47332500  .00000281  00000+0  10501-3 0  9996
2 27386  98.3301  73.5178 0001171  86.1270  22.1734 14.38901786213627
IDEFIX & ARIANE 42P R/B 
1 27422U 02021B   25115.88771860  .00000627  00000+0  25603-3 0  9994
2 27422  98.5588  53.9454 0012837  47.0849 313.1409 14.30756062198570
AQUA                    
1 27424U 02022A   25116.44945789  .00002077  00000+0  43163-3 0  9995
2 27424  98.3740  74.1652 0001301 110.0718 359.7186 14.61182934222431
CZ-4B R/B               
1 27432U 02024C   25115.57113205  .00000115  00000+0  82715-4 0  9997
2 27432  98.9283 164.7067 0049800 204.7280 315.5558 14.14474769184264
MIDORI II (ADEOS-II)    
1 27597U 02056A   25115.87953853  .00000726  00000+0  30476-3 0  9992
2 27597  98.7344  68.0970 0001064 135.3180 224.8088 14.29005153164901
H-2A R/B                
1 27601U 02056E   25116.20258422  .00000814  00000+0  30104-3 0  9992
2 27601  98.2756  84.6177 0071249  28.8904 342.0741 14.33467399168603
